ONEWEB-0033             
1 45142U 20008M   26192.94489457  .00000046  00000+0  94423-4 0  9991
2 45142  87.8813  31.3426 0002163  96.9438 263.1935 13.10368771311453
ONEWEB-0035             
1 45143U 20008N   26192.58361579 -.00000590  00000+0 -17256-2 0  9999
2 45143  87.8814  31.4081 0001845  90.0704 270.0635 13.10377752311138
ONEWEB-0036             
1 45144U 20008P   26192.94309281  .00000478  00000+0  13323-2 0  9996
2 45144  87.8827  31.3536 0001698  85.2710 274.8611 13.10368877311602
ONEWEB-0038             
1 45145U 20008Q   26192.50755449  .00000485  00000+0  13329-2 0  9994
2 45145  87.8876  16.2363 0001708 148.4619 211.6611 13.11415639313510
ONEWEB-0039             
1 45146U 20008R   26192.56650129 -.00000097  00000+0 -31390-3 0  9990
2 45146  87.8814  31.4089 0001291  74.7490 285.3780 13.10371447311354
ONEWEB-0040             
1 45147U 20008S   26192.94149790  .00000247  00000+0  67176-3 0  9996
2 45147  87.8811  31.3447 0001898  77.2623 282.8717 13.10368859311106
ONEWEB-0043             
1 45149U 20008U   26192.94334424  .00000117  00000+0  30004-3 0  9994
2 45149  87.8819  31.3334 0001349  78.2823 281.8456 13.10371839311421
ONEWEB-0044             
1 45150U 20008V   26192.59027158 -.00000378  00000+0 -11182-2 0  9996
2 45150  87.8828  31.4058 0001783  81.8491 278.2839 13.10377348311673
ONEWEB-0045             
1 45151U 20008W   26192.57862723  .00000597  00000+0  16489-2 0  9996
2 45151  87.8884  16.2033 0001742  93.8865 266.2462 13.11416321313603
ONEWEB-0047             
1 45152U 20008X   26192.58331955 -.00000608  00000+0 -17787-2 0  9993
2 45152  87.8825  31.4063 0001850  94.1004 266.0335 13.10372508311398
ONEWEB-0048             
1 45153U 20008Y   26192.57838417 -.00000538  00000+0 -15781-2 0  9992
2 45153  87.8812  31.4257 0001683  91.1190 269.0131 13.10372056311000
ONEWEB-0049             
1 45154U 20008Z   26192.58161602 -.00000593  00000+0 -17352-2 0  9996
2 45154  87.8815  31.4147 0001966  75.3215 284.8130 13.10372246311227
ONEWEB-0051             
1 45155U 20008AA  26192.50063861  .00000613  00000+0  16941-2 0  9991
2 45155  87.8882  16.2256 0001839  88.8617 271.2722 13.11417747314270
ONEWEB-0052             
1 45156U 20008AB  26192.60229849  .00000176  00000+0  46653-3 0  9991
2 45156  87.8825  31.3980 0001857  73.9939 286.1393 13.10377750311131
ONEWEB-0053             
1 45157U 20008AC  26192.55801769  .00000263  00000+0  71611-3 0  9992
2 45157  87.8812  31.4266 0001554  73.5914 286.5384 13.10369256311102
ONEWEB-0054             
1 45158U 20008AD  26192.59366413 -.00000498  00000+0 -14626-2 0  9993
2 45158  87.8823  31.4046 0001748  86.8068 273.3260 13.10377134311227
